TIANMU-1 07             
1 57399U 23101A   26065.57454230  .00008352  00000+0  29795-3 0  9991
2 57399  97.2728 118.5929 0004609 142.4105 217.7458 15.29118809145964
STARLINK-33820          
1 63584U 25076R   26068.08866065  .00027992  00000+0  10225-2 0  9997
2 63584  42.9942 324.6421 0001772 222.3018 137.7697 15.27591550 51742
